{"type": "FeatureCollection", "features": [ {"type": "Feature", "properties": {"norad_id": 66597, "name": "STARLINK-35820", "group": "last-30-days", "lat": 41.521721370873514, "lon": -41.868307899398324, "alt_km": 397.82239999997637, "timestamp": "2025-12-09T18:55:16.023036+00:00", "meta": {"OBJECT_NAME": "STARLINK-35820", "OBJECT_ID": "2025-270K", "EPOCH": "2025-12-09T14:00:01.999872", "MEAN_MOTION": 15.55507428, "ECCENTRICITY": 0.00017963, "INCLINATION": 42.9995, "RA_OF_ASC_NODE": 211.1766, "ARG_OF_PERICENTER": 261.4693, "MEAN_ANOMALY": 132.8732, "EPHEMERIS_TYPE": 0, "CLASSIFICATION_TYPE": "U", "NORAD_CAT_ID": 66597, "ELEMENT_SET_NO": 999, "REV_AT_EPOCH": 400, "BSTAR": -0.031877727, "MEAN_MOTION_DOT": -0.02001123, "MEAN_MOTION_DDOT": 0}, "tle": {"line1": "1 66597U 25270K   25343.58335648 -.02001123  00000+0 -31878-1 0  9996", "line2": "2 66597  42.9995 211.1766 0001796 261.4693 132.8732 15.55507428  4003"}}, "geometry": {"type": "Point", "coordinates": [-41.868307899398324, 41.521721370873514]}}, {"type": "Feature", "properties": {"norad_id": 66598, "name": "STARLINK-35981", "group": "last-30-days", "lat": 41.087441549836754, "lon": -39.38743077965736, "alt_km": 397.80953150041205, "timestamp": "2025-12-09T18:55:16.023047+00:00", "meta": {"OBJECT_NAME": "STARLINK-35981", "OBJECT_ID": "2025-270L", "EPOCH": "2025-12-09T14:00:01.999872", "MEAN_MOTION": 15.5550769, "ECCENTRICITY": 0.00017967, "INCLINATION": 42.9995, "RA_OF_ASC_NODE": 211.1716, "ARG_OF_PERICENTER": 255.5753, "MEAN_ANOMALY": 140.6848, "EPHEMERIS_TYPE": 0, "CLASSIFICATION_TYPE": "U", "NORAD_CAT_ID": 66598, "ELEMENT_SET_NO": 999, "REV_AT_EPOCH": 373, "BSTAR": -0.031914107, "MEAN_MOTION_DOT": -0.02003186, "MEAN_MOTION_DDOT": 0}, "tle": {"line1": "1 66598U 25270L   25343.58335648 -.02003186  00000+0 -31914-1 0  9999", "line2": "2 66598  42.9995 211.1716 0001796 255.5753 140.6848 15.55507690  3735"}}, "geometry": {"type": "Point", "coordinates": [-39.38743077965736, 41.087441549836754]}}, {"type": "Feature", "properties": {"norad_id": 66599, "name": "STARLINK-35930", "group": "last-30-days", "lat": 40.59996940241456, "lon": -36.938357833300195, "alt_km": 397.868032069895, "timestamp": "2025-12-09T18:55:16.023057+00:00", "meta": {"OBJECT_NAME": "STARLINK-35930", "OBJECT_ID": "2025-270M", "EPOCH": "2025-12-09T14:00:01.999872", "MEAN_MOTION": 15.55502706, "ECCENTRICITY": 0.00017611, "INCLINATION": 42.9994, "RA_OF_ASC_NODE": 211.1675, "ARG_OF_PERICENTER": 257.4702, "MEAN_ANOMALY": 140.708, "EPHEMERIS_TYPE": 0, "CLASSIFICATION_TYPE": "U", "NORAD_CAT_ID": 66599, "ELEMENT_SET_NO": 999, "REV_AT_EPOCH": 389, "BSTAR": -0.031778606, "MEAN_MOTION_DOT": -0.01995213, "MEAN_MOTION_DDOT": 0}, "tle": {"line1": "1 66599U 25270M   25343.58335648 -.01995213  00000+0 -31779-1 0  9999", "line2": "2 66599  42.9994 211.1675 0001761 257.4702 140.7080 15.55502706  3895"}}, "geometry": {"type": "Point", "coordinates": [-36.938357833300195, 40.59996940241456]}}, {"type": "Feature", "properties": {"norad_id": 66600, "name": "STARLINK-35980", "group": "last-30-days", "lat": 40.06056118899006, "lon": -34.522708789397136, "alt_km": 397.97850418306734, "timestamp": "2025-12-09T18:55:16.023067+00:00", "meta": {"OBJECT_NAME": "STARLINK-35980", "OBJECT_ID": "2025-270N", "EPOCH": "2025-12-09T14:00:01.999872", "MEAN_MOTION": 15.55505089, "ECCENTRICITY": 0.00017319, "INCLINATION": 42.9996, "RA_OF_ASC_NODE": 211.1626, "ARG_OF_PERICENTER": 263.752, "MEAN_ANOMALY": 136.3429, "EPHEMERIS_TYPE": 0, "CLASSIFICATION_TYPE": "U", "NORAD_CAT_ID": 66600, "ELEMENT_SET_NO": 999, "REV_AT_EPOCH": 379, "BSTAR": -0.031811458, "MEAN_MOTION_DOT": -0.019972, "MEAN_MOTION_DDOT": 0}, "tle": {"line1": "1 66600U 25270N   25343.58335648 -.01997200  00000+0 -31811-1 0  9997", "line2": "2 66600  42.9996 211.1626 0001731 263.7520 136.3429 15.55505089  3795"}}, "geometry": {"type": "Point", "coordinates": [-34.522708789397136, 40.06056118899006]}}, {"type": "Feature", "properties": {"norad_id": 66601, "name": "STARLINK-35978", "group": "last-30-days", "lat": 39.47295842882067, "lon": -32.152917456515745, "alt_km": 398.00360626942256, "timestamp": "2025-12-09T18:55:16.023077+00:00", "meta": {"OBJECT_NAME": "STARLINK-35978", "OBJECT_ID": "2025-270P", "EPOCH": "2025-12-09T14:00:01.999872", "MEAN_MOTION": 15.55503523, "ECCENTRICITY": 0.00017039, "INCLINATION": 42.9996, "RA_OF_ASC_NODE": 211.1576, "ARG_OF_PERICENTER": 260.8724, "MEAN_ANOMALY": 141.1398, "EPHEMERIS_TYPE": 0, "CLASSIFICATION_TYPE": "U", "NORAD_CAT_ID": 66601, "ELEMENT_SET_NO": 999, "REV_AT_EPOCH": 373, "BSTAR": -0.031777202, "MEAN_MOTION_DOT": -0.01995152, "MEAN_MOTION_DDOT": 0}, "tle": {"line1": "1 66601U 25270P   25343.58335648 -.01995152  00000+0 -31777-1 0  9993", "line2": "2 66601  42.9996 211.1576 0001703 260.8724 141.1398 15.55503523  3737"}}, "geometry": {"type": "Point", "coordinates": [-32.152917456515745, 39.47295842882067]}}, {"type": "Feature", "properties": {"norad_id": 66602, "name": "STARLINK-36050", "group": "last-30-days", "lat": 38.83836851470513, "lon": -29.82574195051418, "alt_km": 398.09503350086925, "timestamp": "2025-12-09T18:55:16.023087+00:00", "meta": {"OBJECT_NAME": "STARLINK-36050", "OBJECT_ID": "2025-270Q", "EPOCH": "2025-12-09T14:00:01.999872", "MEAN_MOTION": 15.555045, "ECCENTRICITY": 0.00017647, "INCLINATION": 42.9997, "RA_OF_ASC_NODE": 211.1527, "ARG_OF_PERICENTER": 259.291, "MEAN_ANOMALY": 144.636, "EPHEMERIS_TYPE": 0, "CLASSIFICATION_TYPE": "U", "NORAD_CAT_ID": 66602, "ELEMENT_SET_NO": 999, "REV_AT_EPOCH": 379, "BSTAR": -0.031786691, "MEAN_MOTION_DOT": -0.01995789, "MEAN_MOTION_DDOT": 0}, "tle": {"line1": "1 66602U 25270Q   25343.58335648 -.01995789  00000+0 -31787-1 0  9991", "line2": "2 66602  42.9997 211.1527 0001764 259.2910 144.6360 15.55504500  3790"}}, "geometry": {"type": "Point", "coordinates": [-29.82574195051418, 38.83836851470513]}}, {"type": "Feature", "properties": {"norad_id": 66603, "name": "STARLINK-36048", "group": "last-30-days", "lat": 38.15573302105618, "lon": -27.53387051590868, "alt_km": 398.2239711419661, "timestamp": "2025-12-09T18:55:16.023099+00:00", "meta": {"OBJECT_NAME": "STARLINK-36048", "OBJECT_ID": "2025-270R", "EPOCH": "2025-12-09T14:00:01.999872", "MEAN_MOTION": 15.55505712, "ECCENTRICITY": 0.0001814, "INCLINATION": 42.9995, "RA_OF_ASC_NODE": 211.148, "ARG_OF_PERICENTER": 260.1506, "MEAN_ANOMALY": 145.6974, "EPHEMERIS_TYPE": 0, "CLASSIFICATION_TYPE": "U", "NORAD_CAT_ID": 66603, "ELEMENT_SET_NO": 999, "REV_AT_EPOCH": 379, "BSTAR": -0.031899239, "MEAN_MOTION_DOT": -0.02002229, "MEAN_MOTION_DDOT": 0}, "tle": {"line1": "1 66603U 25270R   25343.58335648 -.02002229  00000+0 -31899-1 0  9995", "line2": "2 66603  42.9995 211.1480 0001814 260.1506 145.6974 15.55505712  3793"}}, "geometry": {"type": "Point", "coordinates": [-27.53387051590868, 38.15573302105618]}}, {"type": "Feature", "properties": {"norad_id": 66604, "name": "STARLINK-35977", "group": "last-30-days", "lat": 37.43048958734732, "lon": -25.2894123917292, "alt_km": 398.2201751196617, "timestamp": "2025-12-09T18:55:16.023124+00:00", "meta": {"OBJECT_NAME": "STARLINK-35977", "OBJECT_ID": "2025-270S", "EPOCH": "2025-12-09T14:00:01.999872", "MEAN_MOTION": 15.55505898, "ECCENTRICITY": 0.00016478, "INCLINATION": 42.9995, "RA_OF_ASC_NODE": 211.143, "ARG_OF_PERICENTER": 260.3959, "MEAN_ANOMALY": 147.3685, "EPHEMERIS_TYPE": 0, "CLASSIFICATION_TYPE": "U", "NORAD_CAT_ID": 66604, "ELEMENT_SET_NO": 999, "REV_AT_EPOCH": 389, "BSTAR": -0.031881839, "MEAN_MOTION_DOT": -0.02001158, "MEAN_MOTION_DDOT": 0}, "tle": {"line1": "1 66604U 25270S   25343.58335648 -.02001158  00000+0 -31882-1 0  9998", "line2": "2 66604  42.9995 211.1430 0001647 260.3959 147.3685 15.55505898  3891"}}, "geometry": {"type": "Point", "coordinates": [-25.2894123917292, 37.43048958734732]}}, {"type": "Feature", "properties": {"norad_id": 66605, "name": "STARLINK-36052", "group": "last-30-days", "lat": 36.66395586135836, "lon": -23.090065602828023, "alt_km": 398.39709650806344, "timestamp": "2025-12-09T18:55:16.023135+00:00", "meta": {"OBJECT_NAME": "STARLINK-36052", "OBJECT_ID": "2025-270T", "EPOCH": "2025-12-09T14:00:01.999872", "MEAN_MOTION": 15.55508524, "ECCENTRICITY": 0.00017723, "INCLINATION": 42.9996, "RA_OF_ASC_NODE": 211.1384, "ARG_OF_PERICENTER": 261.221, "MEAN_ANOMALY": 148.4598, "EPHEMERIS_TYPE": 0, "CLASSIFICATION_TYPE": "U", "NORAD_CAT_ID": 66605, "ELEMENT_SET_NO": 999, "REV_AT_EPOCH": 389, "BSTAR": -0.031960546, "MEAN_MOTION_DOT": -0.02005836, "MEAN_MOTION_DDOT": 0}, "tle": {"line1": "1 66605U 25270T   25343.58335648 -.02005836  00000+0 -31961-1 0  9994", "line2": "2 66605  42.9996 211.1384 0001772 261.2210 148.4598 15.55508524  3894"}}, "geometry": {"type": "Point", "coordinates": [-23.090065602828023, 36.66395586135836]}}, {"type": "Feature", "properties": {"norad_id": 66606, "name": "STARLINK-36063", "group": "last-30-days", "lat": 35.01330476787631, "lon": -18.82573960156162, "alt_km": 398.5049031580402, "timestamp": "2025-12-09T18:55:16.023145+00:00", "meta": {"OBJECT_NAME": "STARLINK-36063", "OBJECT_ID": "2025-270U", "EPOCH": "2025-12-09T14:00:01.999872", "MEAN_MOTION": 15.55505326, "ECCENTRICITY": 0.0001593, "INCLINATION": 42.9995, "RA_OF_ASC_NODE": 211.1288, "ARG_OF_PERICENTER": 260.7656, "MEAN_ANOMALY": 152.7489, "EPHEMERIS_TYPE": 0, "CLASSIFICATION_TYPE": "U", "NORAD_CAT_ID": 66606, "ELEMENT_SET_NO": 999, "REV_AT_EPOCH": 389, "BSTAR": -0.031854935, "MEAN_MOTION_DOT": -0.01999574, "MEAN_MOTION_DDOT": 0}, "tle": {"line1": "1 66606U 25270U   25343.58335648 -.01999574  00000+0 -31855-1 0  9997", "line2": "2 66606  42.9995 211.1288 0001593 260.7656 152.7489 15.55505326  3890"}}, "geometry": {"type": "Point", "coordinates": [-18.82573960156162, 35.01330476787631]}}]}